0 COSMOS 803
1 08688U 76014A   13281.84058822  .00001892  00000-0  73732-4 0  1370
2 08688 065.8472 098.2236 0014106 166.1367 194.0163 15.29095305 78363
0 COSMOS 803
1 08688U 76014A   13283.01788950  .00002125  00000-0  81908-4 0  1388
2 08688 065.8473 094.4988 0013914 165.2968 194.8580 15.29105559 78543
0 COSMOS 803
1 08688U 76014A   13283.80276444  .00001757  00000-0  61579-4 0  1398
2 08688 065.8491 092.0294 0015453 164.1291 196.0853 15.29103089 78660
0 COSMOS 803
1 08688U 76014A   13285.83030832  .00002459  00000-0  93581-4 0  1413
2 08688 065.8481 085.6048 0013816 163.5756 196.5835 15.29117001 78972
0 COSMOS 803
1 08688U 76014A   13286.87678312  .00002712  00000-0  10246-3 0  1428
2 08688 065.8483 082.2937 0013646 162.6012 197.5599 15.29120837 79138
0 COSMOS 803
1 08688U 76014A   13288.77350908  .00003059  00000-0  11461-3 0  1433
2 08688 065.8489 076.2927 0013372 160.8532 199.3115 15.29134351 79421
0 COSMOS 803
1 08688U 76014A   13290.40860592  .00003187  00000-0  11904-3 0  1446
2 08688 065.8494 071.1195 0013247 159.7568 200.4101 15.29144586 79672
0 COSMOS 803
1 08688U 76014A   13290.67022943  .00002737  00000-0  95870-4 0  1451
2 08688 065.8485 070.2959 0013597 160.1408 200.0770 15.29145065 79713
0 COSMOS 803
1 08688U 76014A   13291.84748110  .00003083  00000-0  11540-3 0  1458
2 08688 065.8499 066.5674 0013066 158.6655 201.5033 15.29151228 79892
0 COSMOS 803
1 08688U 76014A   13293.48255790  .00003604  00000-0  13362-3 0  1461
2 08688 065.8501 061.3946 0012908 157.2768 202.8947 15.29161657 80140
0 COSMOS 803
1 08688U 76014A   13294.79061212  .00003741  00000-0  13837-3 0  1470
2 08688 065.8500 057.2561 0012708 156.0209 204.1527 15.29170666 80342
